CCSDS_OMM_VERS = 2.0
CREATION_DATE  = 
ORIGINATOR     = 

OBJECT_NAME    = CZ-2C R/B
OBJECT_ID      = 2022-132E
CENTER_NAME    = EARTH
REF_FRAME      = TEME
TIME_SYSTEM    = UTC
MEAN_ELEMENT_THEORY = SGP/SGP4

EPOCH          = 2026-02-22T18:09:54.578016
MEAN_MOTION    = 15.60453096
ECCENTRICITY   = .0020284
INCLINATION    = 97.2968
RA_OF_ASC_NODE = 56.6382
ARG_OF_PERICENTER = 139.4340
MEAN_ANOMALY   = 220.8433

EPHEMERIS_TYPE = 0
CLASSIFICATION_TYPE = U
NORAD_CAT_ID   = 54039
ELEMENT_SET_NO = 999
REV_AT_EPOCH   = 18804
BSTAR          = .53965E-3
MEAN_MOTION_DOT = .44843E-3
MEAN_MOTION_DDOT = 0

CCSDS_OMM_VERS = 2.0
CREATION_DATE  = 
ORIGINATOR     = 

OBJECT_NAME    = GSLV R/B
OBJECT_ID      = 2022-138AN
CENTER_NAME    = EARTH
REF_FRAME      = TEME
TIME_SYSTEM    = UTC
MEAN_ELEMENT_THEORY = SGP/SGP4

EPOCH          = 2026-02-22T14:39:32.923872
MEAN_MOTION    = 14.96651477
ECCENTRICITY   = .0020791
INCLINATION    = 87.3880
RA_OF_ASC_NODE = 171.4077
ARG_OF_PERICENTER = 200.6611
MEAN_ANOMALY   = 159.3782

EPHEMERIS_TYPE = 0
CLASSIFICATION_TYPE = U
NORAD_CAT_ID   = 54149
ELEMENT_SET_NO = 999
REV_AT_EPOCH   = 18167
BSTAR          = .33276E-3
MEAN_MOTION_DOT = .3837E-4
MEAN_MOTION_DDOT = 0

CCSDS_OMM_VERS = 2.0
CREATION_DATE  = 
ORIGINATOR     = 

OBJECT_NAME    = XRISM
OBJECT_ID      = 2023-137A
CENTER_NAME    = EARTH
REF_FRAME      = TEME
TIME_SYSTEM    = UTC
MEAN_ELEMENT_THEORY = SGP/SGP4

EPOCH          = 2026-02-22T13:59:39.698304
MEAN_MOTION    = 15.11296485
ECCENTRICITY   = .0008329
INCLINATION    = 31.0035
RA_OF_ASC_NODE = 21.3552
ARG_OF_PERICENTER = 248.5053
MEAN_ANOMALY   = 111.4697

EPHEMERIS_TYPE = 0
CLASSIFICATION_TYPE = U
NORAD_CAT_ID   = 57800
ELEMENT_SET_NO = 999
REV_AT_EPOCH   = 13550
BSTAR          = .35918E-3
MEAN_MOTION_DOT = .6301E-4
MEAN_MOTION_DDOT = 0

CCSDS_OMM_VERS = 2.0
CREATION_DATE  = 
ORIGINATOR     = 

OBJECT_NAME    = ACS3
OBJECT_ID      = 2024-077B
CENTER_NAME    = EARTH
REF_FRAME      = TEME
TIME_SYSTEM    = UTC
MEAN_ELEMENT_THEORY = SGP/SGP4

EPOCH          = 2026-02-22T14:08:21.839424
MEAN_MOTION    = 13.88920613
ECCENTRICITY   = .0050421
INCLINATION    = 97.2152
RA_OF_ASC_NODE = 358.0969
ARG_OF_PERICENTER = 119.7547
MEAN_ANOMALY   = 240.8646

EPHEMERIS_TYPE = 0
CLASSIFICATION_TYPE = U
NORAD_CAT_ID   = 59588
ELEMENT_SET_NO = 999
REV_AT_EPOCH   = 9210
BSTAR          = .17684E-1
MEAN_MOTION_DOT = .21641E-3
MEAN_MOTION_DDOT = 0

CCSDS_OMM_VERS = 2.0
CREATION_DATE  = 
ORIGINATOR     = 

OBJECT_NAME    = SZ-21 MODULE
OBJECT_ID      = 2025-246C
CENTER_NAME    = EARTH
REF_FRAME      = TEME
TIME_SYSTEM    = UTC
MEAN_ELEMENT_THEORY = SGP/SGP4

EPOCH          = 2026-02-22T02:03:26.186400
MEAN_MOTION    = 15.67269924
ECCENTRICITY   = .0001593
INCLINATION    = 41.4753
RA_OF_ASC_NODE = 299.3233
ARG_OF_PERICENTER = 293.5720
MEAN_ANOMALY   = 66.4954

EPHEMERIS_TYPE = 0
CLASSIFICATION_TYPE = U
NORAD_CAT_ID   = 66515
ELEMENT_SET_NO = 999
REV_AT_EPOCH   = 1562
BSTAR          = .2743E-3
MEAN_MOTION_DOT = .30145E-3
MEAN_MOTION_DDOT = 0

