CZ-2C R/B               
1 54039U 22132E   26053.75688169  .00044843  00000+0  53965-3 0  9990
2 54039  97.2968  56.6382 0020284 139.4340 220.8433 15.60453096188046
GSLV R/B                
1 54149U 22138AN  26053.61079773  .00003837  00000+0  33276-3 0  9999
2 54149  87.3880 171.4077 0020791 200.6611 159.3782 14.96651477181679
XRISM                   
1 57800U 23137A   26053.58309836  .00006301  00000+0  35918-3 0  9992
2 57800  31.0035  21.3552 0008329 248.5053 111.4697 15.11296485135506
ACS3                    
1 59588U 24077B   26053.58914166  .00021641  00000+0  17684-1 0  9991
2 59588  97.2152 358.0969 0050421 119.7547 240.8646 13.88920613 92102
SZ-21 MODULE            
1 66515U 25246C   26053.08571975  .00030145  00000+0  27430-3 0  9991
2 66515  41.4753 299.3233 0001593 293.5720  66.4954 15.67269924 15625
